{"fetched_at":"2026-03-29T16:36:15Z","count":15609,"tles":[{"name":"STARLINK-34371","line1":"1 64756U 25147B   26087.59722663  .00036752  00000+0  12466-2 0  9993","line2":"2 64756  53.1595 155.1381 0001332  65.7765 294.3374 15.30208126 41596","category":"Starlink"}]}